{"type": "FeatureCollection", "features": [ {"type": "Feature", "properties": {"norad_id": 32384, "name": "GPS BIIRM-5 (PRN 29)", "group": "gps-ops", "lat": -53.51701122620438, "lon": -148.15794813104915, "alt_km": 20228.249381066835, "timestamp": "2025-12-07T11:27:50.260639+00:00", "meta": {"OBJECT_NAME": "GPS BIIRM-5 (PRN 29)", "OBJECT_ID": "2007-062A", "EPOCH": "2025-12-06T07:55:36.402816", "MEAN_MOTION": 2.00576852, "ECCENTRICITY": 0.00322142, "INCLINATION": 55.1879, "RA_OF_ASC_NODE": 281.903, "ARG_OF_PERICENTER": 162.6829, "MEAN_ANOMALY": 10.1914, "EPHEMERIS_TYPE": 0, "CLASSIFICATION_TYPE": "U", "NORAD_CAT_ID": 32384, "ELEMENT_SET_NO": 999, "REV_AT_EPOCH": 13164, "BSTAR": 0, "MEAN_MOTION_DOT": -3.7e-07, "MEAN_MOTION_DDOT": 0}, "tle": {"line1": "1 32384U 07062A   25340.33028244 -.00000037  00000+0  00000+0 0  9994", "line2": "2 32384  55.1879 281.9030 0032214 162.6829  10.1914  2.00576852131642"}}, "geometry": {"type": "Point", "coordinates": [-148.15794813104915, -53.51701122620438]}}, {"type": "Feature", "properties": {"norad_id": 32711, "name": "GPS BIIRM-6 (PRN 07)", "group": "gps-ops", "lat": -19.732793840913843, "lon": -7.569504765376324, "alt_km": 19771.479650063426, "timestamp": "2025-12-07T11:27:50.260650+00:00", "meta": {"OBJECT_NAME": "GPS BIIRM-6 (PRN 07)", "OBJECT_ID": "2008-012A", "EPOCH": "2025-12-06T16:34:57.264384", "MEAN_MOTION": 2.00565269, "ECCENTRICITY": 0.02022029, "INCLINATION": 54.4762, "RA_OF_ASC_NODE": 157.6144, "ARG_OF_PERICENTER": 244.8815, "MEAN_ANOMALY": 113.0202, "EPHEMERIS_TYPE": 0, "CLASSIFICATION_TYPE": "U", "NORAD_CAT_ID": 32711, "ELEMENT_SET_NO": 999, "REV_AT_EPOCH": 12989, "BSTAR": 0, "MEAN_MOTION_DOT": 6.1e-07, "MEAN_MOTION_DDOT": 0}, "tle": {"line1": "1 32711U 08012A   25340.69094056  .00000061  00000+0  00000+0 0  9993", "line2": "2 32711  54.4762 157.6144 0202202 244.8815 113.0202  2.00565269129895"}}, "geometry": {"type": "Point", "coordinates": [-7.569504765376324, -19.732793840913843]}}, {"type": "Feature", "properties": {"norad_id": 35752, "name": "GPS BIIRM-8 (PRN 05)", "group": "gps-ops", "lat": -36.888188800324954, "lon": -114.69432826473006, "alt_km": 20298.596162680613, "timestamp": "2025-12-07T11:27:50.260662+00:00", "meta": {"OBJECT_NAME": "GPS BIIRM-8 (PRN 05)", "OBJECT_ID": "2009-043A", "EPOCH": "2025-12-06T04:15:17.726400", "MEAN_MOTION": 2.00565936, "ECCENTRICITY": 0.00519837, "INCLINATION": 56.0865, "RA_OF_ASC_NODE": 35.042, "ARG_OF_PERICENTER": 82.0207, "MEAN_ANOMALY": 285.0233, "EPHEMERIS_TYPE": 0, "CLASSIFICATION_TYPE": "U", "NORAD_CAT_ID": 35752, "ELEMENT_SET_NO": 999, "REV_AT_EPOCH": 11949, "BSTAR": 0, "MEAN_MOTION_DOT": -7.1e-07, "MEAN_MOTION_DDOT": 0}, "tle": {"line1": "1 35752U 09043A   25340.17728850 -.00000071  00000+0  00000+0 0  9997", "line2": "2 35752  56.0865  35.0420 0051983  82.0207 285.0233  2.00565936119496"}}, "geometry": {"type": "Point", "coordinates": [-114.69432826473006, -36.888188800324954]}}, {"type": "Feature", "properties": {"norad_id": 36585, "name": "GPS BIIF-1  (PRN 25)", "group": "gps-ops", "lat": -13.687147120144624, "lon": -153.7817740634494, "alt_km": 20133.904187216995, "timestamp": "2025-12-07T11:27:50.260673+00:00", "meta": {"OBJECT_NAME": "GPS BIIF-1  (PRN 25)", "OBJECT_ID": "2010-022A", "EPOCH": "2025-12-06T05:55:19.682976", "MEAN_MOTION": 2.00552783, "ECCENTRICITY": 0.01258443, "INCLINATION": 54.3013, "RA_OF_ASC_NODE": 216.3359, "ARG_OF_PERICENTER": 65.0038, "MEAN_ANOMALY": 110.8352, "EPHEMERIS_TYPE": 0, "CLASSIFICATION_TYPE": "U", "NORAD_CAT_ID": 36585, "ELEMENT_SET_NO": 999, "REV_AT_EPOCH": 11372, "BSTAR": 0, "MEAN_MOTION_DOT": 5.1e-07, "MEAN_MOTION_DDOT": 0}, "tle": {"line1": "1 36585U 10022A   25340.24675559  .00000051  00000+0  00000+0 0  9993", "line2": "2 36585  54.3013 216.3359 0125844  65.0038 110.8352  2.00552783113726"}}, "geometry": {"type": "Point", "coordinates": [-153.7817740634494, -13.687147120144624]}}, {"type": "Feature", "properties": {"norad_id": 38833, "name": "GPS BIIF-3  (PRN 24)", "group": "gps-ops", "lat": 52.862469787722745, "lon": -131.1190899551757, "alt_km": 19732.767772037245, "timestamp": "2025-12-07T11:27:50.260684+00:00", "meta": {"OBJECT_NAME": "GPS BIIF-3  (PRN 24)", "OBJECT_ID": "2012-053A", "EPOCH": "2025-12-05T20:54:28.108224", "MEAN_MOTION": 2.00564871, "ECCENTRICITY": 0.01756137, "INCLINATION": 53.5564, "RA_OF_ASC_NODE": 151.5199, "ARG_OF_PERICENTER": 63.8922, "MEAN_ANOMALY": 297.9105, "EPHEMERIS_TYPE": 0, "CLASSIFICATION_TYPE": "U", "NORAD_CAT_ID": 38833, "ELEMENT_SET_NO": 999, "REV_AT_EPOCH": 9556, "BSTAR": 0, "MEAN_MOTION_DOT": 6.1e-07, "MEAN_MOTION_DDOT": 0}, "tle": {"line1": "1 38833U 12053A   25339.87115866  .00000061  00000+0  00000+0 0  9995", "line2": "2 38833  53.5564 151.5199 0175613  63.8922 297.9105  2.00564871 95560"}}, "geometry": {"type": "Point", "coordinates": [-131.1190899551757, 52.862469787722745]}}, {"type": "Feature", "properties": {"norad_id": 39166, "name": "GPS BIIF-4  (PRN 27)", "group": "gps-ops", "lat": -0.5123503989617796, "lon": 97.12901066717086, "alt_km": 20423.937146420998, "timestamp": "2025-12-07T11:27:50.260696+00:00", "meta": {"OBJECT_NAME": "GPS BIIF-4  (PRN 27)", "OBJECT_ID": "2013-023A", "EPOCH": "2025-12-06T05:36:29.430144", "MEAN_MOTION": 2.00565051, "ECCENTRICITY": 0.01374987, "INCLINATION": 54.6578, "RA_OF_ASC_NODE": 276.8328, "ARG_OF_PERICENTER": 48.5421, "MEAN_ANOMALY": 312.6375, "EPHEMERIS_TYPE": 0, "CLASSIFICATION_TYPE": "U", "NORAD_CAT_ID": 39166, "ELEMENT_SET_NO": 999, "REV_AT_EPOCH": 9201, "BSTAR": 0, "MEAN_MOTION_DOT": -3.2e-07, "MEAN_MOTION_DDOT": 0}, "tle": {"line1": "1 39166U 13023A   25340.23367396 -.00000032  00000+0  00000+0 0  9991", "line2": "2 39166  54.6578 276.8328 0137498  48.5421 312.6375  2.00565051 92017"}}, "geometry": {"type": "Point", "coordinates": [97.12901066717086, -0.5123503989617796]}}, {"type": "Feature", "properties": {"norad_id": 39533, "name": "GPS BIIF-5  (PRN 30)", "group": "gps-ops", "lat": -0.8975868969610089, "lon": -22.20635905849521, "alt_km": 20033.370127755985, "timestamp": "2025-12-07T11:27:50.260707+00:00", "meta": {"OBJECT_NAME": "GPS BIIF-5  (PRN 30)", "OBJECT_ID": "2014-008A", "EPOCH": "2025-12-06T17:26:15.806112", "MEAN_MOTION": 2.00574018, "ECCENTRICITY": 0.00790593, "INCLINATION": 53.6301, "RA_OF_ASC_NODE": 157.1699, "ARG_OF_PERICENTER": 226.4148, "MEAN_ANOMALY": 132.9387, "EPHEMERIS_TYPE": 0, "CLASSIFICATION_TYPE": "U", "NORAD_CAT_ID": 39533, "ELEMENT_SET_NO": 999, "REV_AT_EPOCH": 8582, "BSTAR": 0, "MEAN_MOTION_DOT": 5.9e-07, "MEAN_MOTION_DDOT": 0}, "tle": {"line1": "1 39533U 14008A   25340.72657183  .00000059  00000+0  00000+0 0  9991", "line2": "2 39533  53.6301 157.1699 0079059 226.4148 132.9387  2.00574018 85821"}}, "geometry": {"type": "Point", "coordinates": [-22.20635905849521, -0.8975868969610089]}}, {"type": "Feature", "properties": {"norad_id": 39741, "name": "GPS BIIF-6  (PRN 06)", "group": "gps-ops", "lat": -18.239034027797594, "lon": -33.59013636188043, "alt_km": 20087.41972867936, "timestamp": "2025-12-07T11:27:50.260718+00:00", "meta": {"OBJECT_NAME": "GPS BIIF-6  (PRN 06)", "OBJECT_ID": "2014-026A", "EPOCH": "2025-12-06T12:15:32.711328", "MEAN_MOTION": 2.00561644, "ECCENTRICITY": 0.00390117, "INCLINATION": 56.5859, "RA_OF_ASC_NODE": 339.0187, "ARG_OF_PERICENTER": 318.329, "MEAN_ANOMALY": 41.3876, "EPHEMERIS_TYPE": 0, "CLASSIFICATION_TYPE": "U", "NORAD_CAT_ID": 39741, "ELEMENT_SET_NO": 999, "REV_AT_EPOCH": 8467, "BSTAR": 0, "MEAN_MOTION_DOT": -7.9e-07, "MEAN_MOTION_DDOT": 0}, "tle": {"line1": "1 39741U 14026A   25340.51079527 -.00000079  00000+0  00000+0 0  9992", "line2": "2 39741  56.5859 339.0187 0039011 318.3290  41.3876  2.00561644 84677"}}, "geometry": {"type": "Point", "coordinates": [-33.59013636188043, -18.239034027797594]}}, {"type": "Feature", "properties": {"norad_id": 40105, "name": "GPS BIIF-7  (PRN 09)", "group": "gps-ops", "lat": -54.9036243349439, "lon": 15.1453732658514, "alt_km": 20266.69385107538, "timestamp": "2025-12-07T11:27:50.260729+00:00", "meta": {"OBJECT_NAME": "GPS BIIF-7  (PRN 09)", "OBJECT_ID": "2014-045A", "EPOCH": "2025-12-05T14:26:16.975968", "MEAN_MOTION": 2.00571979, "ECCENTRICITY": 0.00328896, "INCLINATION": 55.2248, "RA_OF_ASC_NODE": 96.1837, "ARG_OF_PERICENTER": 119.6741, "MEAN_ANOMALY": 240.6258, "EPHEMERIS_TYPE": 0, "CLASSIFICATION_TYPE": "U", "NORAD_CAT_ID": 40105, "ELEMENT_SET_NO": 999, "REV_AT_EPOCH": 8219, "BSTAR": 0, "MEAN_MOTION_DOT": -1.2e-07, "MEAN_MOTION_DDOT": 0}, "tle": {"line1": "1 40105U 14045A   25339.60158537 -.00000012  00000+0  00000+0 0  9993", "line2": "2 40105  55.2248  96.1837 0032889 119.6741 240.6258  2.00571979 82198"}}, "geometry": {"type": "Point", "coordinates": [15.1453732658514, -54.9036243349439]}}, {"type": "Feature", "properties": {"norad_id": 40294, "name": "GPS BIIF-8  (PRN 03)", "group": "gps-ops", "lat": 2.558055196668502, "lon": 40.04013464687726, "alt_km": 20116.053514514424, "timestamp": "2025-12-07T11:27:50.260740+00:00", "meta": {"OBJECT_NAME": "GPS BIIF-8  (PRN 03)", "OBJECT_ID": "2014-068A", "EPOCH": "2025-12-05T23:27:53.798400", "MEAN_MOTION": 2.00564264, "ECCENTRICITY": 0.00608121, "INCLINATION": 56.8528, "RA_OF_ASC_NODE": 38.4077, "ARG_OF_PERICENTER": 69.3337, "MEAN_ANOMALY": 291.3749, "EPHEMERIS_TYPE": 0, "CLASSIFICATION_TYPE": "U", "NORAD_CAT_ID": 40294, "ELEMENT_SET_NO": 999, "REV_AT_EPOCH": 8133, "BSTAR": 0, "MEAN_MOTION_DOT": -6.8e-07, "MEAN_MOTION_DDOT": 0}, "tle": {"line1": "1 40294U 14068A   25339.97770600 -.00000068  00000+0  00000+0 0  9999", "line2": "2 40294  56.8528  38.4077 0060812  69.3337 291.3749  2.00564264 81331"}}, "geometry": {"type": "Point", "coordinates": [40.04013464687726, 2.558055196668502]}}]}